COSMOS 1892             
1 18421U 87088A   20338.17534759  .00001883  00000-0  92566-4 0  9996
2 18421  82.4996 106.5488 0014537 194.6664 165.4150 15.17346418810353
SL-14 R/B               
1 18749U 88001B   20338.15321978  .00000115  00000-0  11022-4 0  9995
2 18749  82.5149 199.5470 0020245 101.3951  14.8884 14.83236407777976
COSMOS 1933             
1 18958U 88020A   20337.67855833  .00000228  00000-0  14518-4 0  9994
2 18958  82.5277 323.1351 0010004 304.0844  55.9432 15.03807959760367
SL-3 R/B                
1 19046U 88032B   20338.45775735  .00001148  00000-0  88969-4 0  9998
2 19046  97.3951 351.9581 0036809 352.0173   8.0463 15.02805183762633
SL-16 R/B               
1 19120U 88039B   20337.71090051  .00000115  00000-0  77761-4 0  9998
2 19120  71.0134 172.9897 0020297  44.9168 315.3595 14.19212716685527
COSMOS 1953             
1 19210U 88050A   20337.47848587  .00000607  00000-0  39538-4 0  9995
2 19210  82.5171 246.7086 0011070 264.9008  95.0956 15.06092749746958
SL-8 R/B                
1 19257U 88053B   20338.20516369  .00000076  00000-0  34166-4 0  9993
2 19257  74.0505  50.6947 0020898 344.6050  76.8870 14.37491902700538
COSMOS 1975             
1 19573U 88093A   20338.37365687  .00001263  00000-0  86892-4 0  9993
2 19573  82.5208 200.5528 0013300 311.7147  48.2941 15.04999284750051
SL-14 R/B               
1 19574U 88093B   20337.81328181  .00000144  00000-0  14664-4 0  9995
2 19574  82.5340  42.6168 0020051 266.5937 231.8200 14.83347250715829
SL-16 R/B               
1 19650U 88102B   20337.92117128 -.00000046  00000-0  82291-6 0  9995
2 19650  71.0000 235.6543 0012380  52.3535 307.8709 14.15792254654724
INTERCOSMOS 24          
1 20261U 89080A   20338.19909062  .00000321  00000-0  87249-4 0  9998
2 20261  82.6048 271.0648 1203316  58.4769 312.8246 12.56151335424776
SL-14 R/B               
1 20262U 89080C   20337.72196418  .00000074  00000-0  21670-4 0  9991
2 20262  82.5929 326.1411 1235876 253.4650  92.7402 12.48952395419998
DELTA 2 R/B(1)          
1 20303U 89085B   20338.40866132  .00006107  00000-0  19229-3 0  9994
2 20303  35.6381  28.6402 0093986 239.6784 119.4620 15.28069042693910
DELTA 1 R/B             
1 20323U 89089B   20338.20278624  .00000078  00000-0  29184-4 0  9994
2 20323  97.1137  97.2720 0072988  60.7990 300.0482 14.48372049637827
ARIANE 40 R/B           
1 20443U 90005H   20337.47034063  .00000059  00000-0  34228-4 0  9996
2 20443  98.5564  38.8450 0010176 196.9044 163.1805 14.38107564616262
DELTA 2 R/B(1)          
1 20453U 90008B   20337.76571442  .00004199  00000-0  23076-3 0  9996
2 20453  35.6275 343.6296 0280183 270.2067  86.6547 14.85919025636244
COSMOS 2058             
1 20465U 90010A   20338.10751354  .00000637  00000-0  51484-4 0  9991
2 20465  82.4884 111.0580 0015211 358.2277   1.8889 14.98091332674688
SL-14 R/B               
1 20466U 90010B   20338.40848656  .00000132  00000-0  13760-4 0  9992
2 20466  82.5036 268.6440 0021479 139.1956 221.0871 14.81401756664803
SL-14 R/B               
1 20511U 90018B   20338.43218395  .00000117  00000-0  12353-4 0  9995
2 20511  82.5244 215.7658 0016006 285.3257 247.7047 14.80057384659208
HST                     
1 20580U 90037B   20338.14913771  .00000972  00000-0  48133-4 0  9994
2 20580  28.4702 283.8291 0002917 108.5033 271.3505 15.09498448481561
SL-16 R/B               
1 20625U 90046B   20338.43044243  .00000294  00000-0  17765-3 0  9998
2 20625  70.9996  13.5223 0014946 337.0962  22.9492 14.14659895576768
COSMOS 2084             
1 20663U 90055A   20338.20235068  .00000352  00000-0  51975-4 0  9999
2 20663  62.7950 324.7406 0040541 328.5416  31.3253 14.92152241648542
SL-6 R/B(2)             
1 20666U 90055D   20337.48957598  .00000317  00000-0  47573-4 0  9990
2 20666  62.7859 243.1372 0070359  10.7609 349.4970 14.92400954650373
SL-8 R/B                
1 20775U 90078B   20338.09759362  .00002683  00000-0  12792-3 0  9995
2 20775  82.9274  87.5135 0571727  32.1640 331.3109 14.35016173529916
SL-8 R/B                
1 21088U 91006B   20337.78877826  .00000082  00000-0  67479-4 0  9990
2 21088  82.9408 160.0786 0023032  22.8127 347.8230 13.77149700499381
OKEAN-3                 
1 21397U 91039A   20338.21121019  .00000463  00000-0  42020-4 0  9992
2 21397  82.5226  16.2815 0016875 329.3228  30.7004 14.92999131598507
COSMOS 2151             
1 21422U 91042A   20338.11157457  .00000364  00000-0  33161-4 0  9995
2 21422  82.4991 122.3757 0014921  34.8632 325.3562 14.92183113597118
SL-14 R/B               
1 21423U 91042B   20337.83247680  .00000126  00000-0  13636-4 0  9993
2 21423  82.4955 219.5287 0019035  69.3723 290.9529 14.79807204568567
ERS-1                   
1 21574U 91050A   20337.62274492  .00000048  00000-0  30447-4 0  9999
2 21574  98.6207 291.2124 0033487 145.4009 214.9365 14.37770236539289
ARIANE 40 R/B           
1 21610U 91050F   20338.48520932  .00000071  00000-0  35798-4 0  9998
2 21610  98.4483  45.8842 0004361 108.8588 261.6998 14.40924778542324
INTERCOSMOS 25          
1 21819U 91086A   20337.68933973  .00000789  00000-0  16281-3 0  9993
2 21819  82.5981  25.5632 1514561 273.4894  69.4773 12.05201480264550
SL-8 R/B                
1 21876U 92008B   20337.55891932  .00000060  00000-0  46188-4 0  9997
2 21876  82.9279 257.4585 0036073 103.8023  68.6566 13.75669164444989
SL-8 R/B                
1 21938U 92020B   20337.73068394  .00000111  00000-0  99756-4 0  9994
2 21938  82.9279 141.6472 0028063 263.8047 106.7349 13.75287949436802
COSMOS 2219             
1 22219U 92076A   20337.55551035 -.00000185  00000-0 -73085-4 0  9997
2 22219  71.0597  76.5488 0020609 258.8253 101.0552 14.13643872446899
SL-16 R/B               
1 22220U 92076B   20338.21907218 -.00000211  00000-0 -81820-4 0  9997
2 22220  71.0008 276.3173 0011634 155.3432 305.4015 14.16463565449908
COSMOS 2221             
1 22236U 92080A   20338.01584238  .00000396  00000-0  40358-4 0  9993
2 22236  82.5065 304.3651 0018038 119.4478 240.8542 14.87978621515389
SL-16 R/B               
1 22285U 92093B   20337.75543591  .00000292  00000-0  17522-3 0  9999
2 22285  71.0223  79.4337 0004839 332.6259  27.4608 14.15050575441147
COSMOS 2228             
1 22286U 92094A   20338.14497538  .00000405  00000-0  41162-4 0  9998
2 22286  82.5210 260.6790 0019683 239.0541 120.8743 14.88199671510602
SL-16 R/B               
1 22566U 93016B   20337.57941576 -.00000045  00000-0  15948-5 0  9991
2 22566  71.0069 292.8349 0010122 356.8553   3.2504 14.14963974430126
COSMOS 2242             
1 22626U 93024A   20337.60121590  .00000401  00000-0  40909-4 0  9996
2 22626  82.5209 289.3877 0017439 240.6663 119.2813 14.88050815493866
SL-16 R/B               
1 22803U 93059B   20338.49246107 -.00000274  00000-0 -11269-3 0  9997
2 22803  70.9899 103.0301 0019631 260.0603  99.8304 14.16827964407501
ARIANE 40 R/B           
1 22830U 93061H   20337.40958912  .00000024  00000-0  26159-4 0  9990
2 22830  98.7437  27.9799 0010915 184.5842 175.5243 14.31461433418859
COSMOS 2278             
1 23087U 94023A   20337.92111480 -.00000047  00000-0 -16062-6 0  9993
2 23087  71.0530 235.5247 0006655  84.7295 275.4587 14.13809491373004
SL-16 R/B               
1 23088U 94023B   20337.75767365 -.00000352  00000-0 -15824-3 0  9995
2 23088  70.9966 147.8621 0004754 310.7263  49.3446 14.14681939374113
SL-16 R/B               
1 23343U 94074B   20338.14805907  .00000075  00000-0  18038-4 0  9995
2 23343  97.9770  29.4501 0006231 338.3195  77.6254 14.76849704403526
SL-16 R/B               
1 23405U 94077B   20337.56578450 -.00000276  00000-0 -11738-3 0  9996
2 23405  70.9840  76.9881 0004296 236.3273 123.7441 14.15225458344134
ERS-2                   
1 23560U 95021A   20338.44246894  .00002197  00000-0  95909-4 0  9995
2 23560  98.5530 155.2740 0002756 335.3213  24.7888 15.23482136367875
ARIANE 40+ R/B          
1 23561U 95021B   20337.41419969  .00000088  00000-0  44202-4 0  9994
2 23561  98.7040  19.0096 0007960 113.7420 257.6117 14.37996030342710
SL-16 R/B               
1 23705U 95058B   20338.17263241  .00000285  00000-0  17136-3 0  9992
2 23705  71.0228 254.9538 0012429 179.9621 180.1505 14.15140220296140
SL-16 R/B               
1 24298U 96051B   20338.27282832 -.00000134  00000-0 -46321-4 0  9996
2 24298  70.8407 274.6382 0013518 108.0808 252.1786 14.12485769250452
ORBVIEW 2 (SEASTAR)     
1 24883U 97037A   20338.30698085  .00000095  00000-0  50496-4 0  9998
2 24883  98.6264  90.8875 0001845 354.3417   5.7746 14.33583479233165
SL-16 R/B               
1 25400U 98043G   20338.45709571  .00000011  00000-0  22885-4 0  9990
2 25400  98.6227 271.3631 0009494 196.6312 163.4558 14.25465707165324
SL-16 R/B               
1 25407U 98045B   20338.26740997  .00000259  00000-0  15572-3 0  9993
2 25407  71.0117 262.8173 0005343  70.9449 289.2252 14.15830467155240
ISS (ZARYA)             
1 25544U 98067A   20338.55424146  .00004534  00000-0  89953-4 0  9991
2 25544  51.6467 230.4335 0001958 105.4063 319.4121 15.49146310258272
SL-8 R/B                
1 25723U 99022C   20337.94003691  .00067436  00000-0  30399-3 0  9991
2 25723  48.4084 154.0401 0001655 179.6349 180.4609 15.83307957204585
CZ-4B R/B               
1 25732U 99025C   20338.14842681 -.00000005  00000-0  19652-4 0  9997
2 25732  98.9277   7.9129 0038353  89.8608 311.8305 14.17684752115869
OKEAN-O                 
1 25860U 99039A   20338.09899712  .00000119  00000-0  24679-4 0  9995
2 25860  98.2028 359.9408 0001774  79.9455 280.1954 14.76695240150490
SL-16 R/B               
1 25861U 99039B   20338.46504851  .00000110  00000-0  22570-4 0  9993
2 25861  98.2095 343.9785 0015137 339.7791 179.8281 14.78605965152737
DELTA 2 R/B             
1 25876U 99041E   20338.44521861 -.00000076  00000-0  29101-4 0  9999
2 25876  51.7649   3.1883 0531494 116.9822 248.6398 14.04485840 92403
